{"fetched_at":"2026-07-15T06:36:32.223Z","source":"https://celestrak.org/NORAD/elements/gp.php?NAME=UMBRA&FORMAT=JSON","constellation":"umbra","records":[{"OBJECT_NAME":"UMBRA-07","OBJECT_ID":"2023-174AT","EPOCH":"2026-07-14T16:24:58.010400","CLASSIFICATION_TYPE":"U","MEAN_MOTION":15.09615573,"ECCENTRICITY":0.00023885,"INCLINATION":97.3784,"RA_OF_ASC_NODE":250.4114,"ARG_OF_PERICENTER":21.4756,"MEAN_ANOMALY":338.6574,"EPHEMERIS_TYPE":0,"NORAD_CAT_ID":58297,"ELEMENT_SET_NO":999,"REV_AT_EPOCH":14756,"BSTAR":0.00032169113,"MEAN_MOTION_DOT":0.00005112,"MEAN_MOTION_DDOT":0},{"OBJECT_NAME":"UMBRA-09","OBJECT_ID":"2024-149CB","EPOCH":"2026-07-14T19:27:12.846240","CLASSIFICATION_TYPE":"U","MEAN_MOTION":15.18841975,"ECCENTRICITY":0.00019761,"INCLINATION":97.6976,"RA_OF_ASC_NODE":283.5044,"ARG_OF_PERICENTER":203.4404,"MEAN_ANOMALY":156.674,"EPHEMERIS_TYPE":0,"NORAD_CAT_ID":60541,"ELEMENT_SET_NO":999,"REV_AT_EPOCH":10491,"BSTAR":0.00042286202,"MEAN_MOTION_DOT":0.00008741,"MEAN_MOTION_DDOT":0},{"OBJECT_NAME":"UMBRA-10","OBJECT_ID":"2024-149CH","EPOCH":"2026-07-14T19:26:33.463392","CLASSIFICATION_TYPE":"U","MEAN_MOTION":15.1884307,"ECCENTRICITY":0.00016904,"INCLINATION":97.6982,"RA_OF_ASC_NODE":283.5339,"ARG_OF_PERICENTER":167.9758,"MEAN_ANOMALY":192.1517,"EPHEMERIS_TYPE":0,"NORAD_CAT_ID":60547,"ELEMENT_SET_NO":999,"REV_AT_EPOCH":10492,"BSTAR":0.00042072627,"MEAN_MOTION_DOT":0.00008697,"MEAN_MOTION_DDOT":0},{"OBJECT_NAME":"UMBRA-11","OBJECT_ID":"2025-276CL","EPOCH":"2026-07-14T21:43:56.651520","CLASSIFICATION_TYPE":"U","MEAN_MOTION":15.27772909,"ECCENTRICITY":0.00026545,"INCLINATION":97.4192,"RA_OF_ASC_NODE":270.3828,"ARG_OF_PERICENTER":186.298,"MEAN_ANOMALY":173.8227,"EPHEMERIS_TYPE":0,"NORAD_CAT_ID":66748,"ELEMENT_SET_NO":999,"REV_AT_EPOCH":3472,"BSTAR":0.00045597762,"MEAN_MOTION_DOT":0.00012304,"MEAN_MOTION_DDOT":0},{"OBJECT_NAME":"UMBRA-12","OBJECT_ID":"2026-004J","EPOCH":"2026-07-14T22:05:02.821920","CLASSIFICATION_TYPE":"U","MEAN_MOTION":14.89531055,"ECCENTRICITY":0.00074135,"INCLINATION":97.8021,"RA_OF_ASC_NODE":194.3098,"ARG_OF_PERICENTER":53.7193,"MEAN_ANOMALY":306.4709,"EPHEMERIS_TYPE":0,"NORAD_CAT_ID":67371,"ELEMENT_SET_NO":999,"REV_AT_EPOCH":2743,"BSTAR":0.00022497348,"MEAN_MOTION_DOT":0.0000209,"MEAN_MOTION_DDOT":0}]}
